OBJECT_NAME,OBJECT_ID,EPOCH,MEAN_MOTION,ECCENTRICITY,INCLINATION,RA_OF_ASC_NODE,ARG_OF_PERICENTER,MEAN_ANOMALY,EPHEMERIS_TYPE,CLASSIFICATION_TYPE,NORAD_CAT_ID,ELEMENT_SET_NO,REV_AT_EPOCH,BSTAR,MEAN_MOTION_DOT,MEAN_MOTION_DDOT
NETSAT-1,2020-068W,2026-07-23T10:39:58.237920,15.35391814,.000312,97.8764,207.6964,217.4832,142.6193,0,U,46506,999,32086,.35865E-3,.12249E-3,0
NETSAT-2,2020-068X,2026-07-23T10:59:17.656800,15.47450695,.0003425,97.8618,215.6810,177.8424,182.2840,0,U,46507,999,32134,.46178E-3,.23621E-3,0
TIANQI-6,2020-076D,2026-07-23T07:16:32.683584,15.07387781,.0009641,34.9974,186.7704,132.2118,227.9411,0,U,46810,999,31403,.21162E-3,.3243E-4,0
KSM1-C,2020-081B,2026-07-23T07:38:14.959680,15.27266997,.0002626,36.8934,195.7884,201.2749,158.7892,0,U,46906,999,31469,.33652E-3,.9117E-4,0
KSM1-D,2020-081C,2026-07-23T08:51:01.124928,15.25176139,.0004264,36.8944,205.1969,212.7788,147.2696,0,U,46907,999,31462,.31682E-3,.8047E-4,0
KSM1-A,2020-081H,2026-07-23T08:10:03.756000,15.26457736,.0004324,36.8938,198.3247,253.9843,106.0430,0,U,46912,999,31470,.33678E-3,.8902E-4,0
R2,2020-081J,2026-07-23T05:51:02.795904,15.25902537,.0009218,36.8966,199.0894,232.2934,127.6979,0,U,46913,999,31749,.29903E-3,.7765E-4,0
KSM1-B,2020-081K,2026-07-23T09:03:20.308032,15.24961021,.0006222,36.8998,205.8377,227.2913,132.7312,0,U,46914,999,31771,.33338E-3,.842E-4,0
GONETS-M 20,2020-091A,2026-07-23T20:57:53.933760,12.42894450,.0022204,82.5037,279.6329,101.0535,259.3043,0,U,47227,999,25563,-.54001E-3,-.65E-6,0
GONETS-M 21,2020-091B,2026-07-23T20:20:32.155296,12.42887333,.0016029,82.4961,278.3336,114.4145,245.8609,0,U,47228,999,25562,-.54347E-3,-.65E-6,0
GONETS-M 22,2020-091C,2026-07-23T19:41:33.268416,12.42893222,.0023036,82.5019,279.2661,96.7219,263.6483,0,U,47229,999,25557,-.12201E-2,-.159E-5,0
CUBEL,2021-006AM,2026-07-23T09:03:48.661056,15.42242731,.00073,97.2309,254.6404,58.8362,301.3601,0,U,47448,999,30533,.47355E-3,.20309E-3,0
ARKTIKA-M 1,2021-016A,2026-07-17T21:31:16.955328,2.00610215,.72985164,63.2571,53.1467,270.0868,14.5016,0,U,47719,999,3940,0,-.295E-5,0
STARLINK-2342,2021-021Z,2026-07-23T22:00:01.998720,15.98614242,.0012673,53.1484,321.8614,328.1650,37.1395,0,U,47883,999,598,.99533E-3,.484314E-2,.11068E-3
GRUS-1B,2021-022C,2026-07-23T19:54:38.174400,14.98802705,.0014805,97.5345,86.8027,185.3239,174.7830,0,U,47934,999,29138,.17732E-3,.2085E-4,0
UNISAT-7,2021-022P,2026-07-23T17:15:38.994048,15.41378605,.000685,97.3846,110.0414,312.3909,47.6757,0,U,47945,999,29548,.34109E-3,.14175E-3,0
GLOBAL-9,2021-023G,2026-07-23T17:31:58.166112,15.47899313,.0004615,44.9817,44.9230,220.9908,139.0637,0,U,47971,999,30060,.40883E-3,.21479E-3,0
AII-BRAVO,2021-034C,2026-07-23T10:09:44.210304,15.03723036,.0007105,97.5609,258.5090,134.0378,226.1434,0,U,48270,999,28506,.30403E-3,.4112E-4,0
TYVAK-182A,2021-034D,2026-07-23T14:24:23.119776,15.06448662,.0005678,97.5702,262.8882,190.4446,169.6664,0,U,48271,999,28531,.23832E-3,.3455E-4,0
CSS (TIANHE),2021-035A,2026-07-23T17:44:40.762752,15.58301417,.0002755,41.4707,100.0404,309.6784,50.3810,0,U,48274,999,29887,.13794E-3,.1044E-3,0
TYVAK-0130,2021-041BF,2026-07-23T09:59:57.841152,15.28012125,.0008418,52.9934,217.7722,290.6049,69.4045,0,U,48606,999,28592,.19544E-3,.5066E-4,0
HAIYANG-2D,2021-043A,2026-07-23T20:58:05.232288,13.83374583,.0011602,65.9967,213.3627,264.7462,95.2282,0,U,48621,999,26162,.10366E-3,.33E-6,0
2021-050D,2021-050D,2026-07-23T20:29:35.758176,15.23660614,.0007075,97.3325,280.0591,126.8856,233.3030,0,U,48843,999,28454,.20762E-3,.4911E-4,0
TYVAK-0173,2021-059P,2026-07-23T04:29:07.397088,14.81988022,.0007144,96.0066,271.5940,265.2158,94.8245,0,U,48892,999,27357,.16652E-3,.1289E-4,0
MANDRAKE 2 ABLE,2021-059AE,2026-07-23T18:33:20.973024,15.56368423,.0004481,97.7032,37.3872,198.4117,161.6975,0,U,48907,999,28281,.30052E-3,.21108E-3,0
MANDRAKE 2 BAKER,2021-059AF,2026-07-23T18:50:31.032960,15.61354778,.0003456,97.6995,40.5372,185.5851,174.5367,0,U,48908,999,28300,.3244E-3,.27531E-3,0
PACE-1,2021-059AG,2026-07-23T01:16:47.121888,15.86907404,.00029388,97.6731,46.4314,154.3467,205.7950,0,U,48909,999,28347,.59517733E-3,.154457E-2,0
YAM-3,2021-059AN,2026-07-23T19:49:15.118752,15.49297126,.0004506,97.6998,34.1989,202.1122,157.9935,0,U,48915,999,28266,.21159E-3,.11473E-3,0
