NETSAT-1                
1 46506U 20068W   26204.44442405  .00012249  00000+0  35865-3 0  9995
2 46506  97.8764 207.6964 0003120 217.4832 142.6193 15.35391814320866
NETSAT-2                
1 46507U 20068X   26204.45784325  .00023621  00000+0  46178-3 0  9992
2 46507  97.8618 215.6810 0003425 177.8424 182.2840 15.47450695321347
TIANQI-6                
1 46810U 20076D   26204.30315606  .00003243  00000+0  21162-3 0  9998
2 46810  34.9974 186.7704 0009641 132.2118 227.9411 15.07387781314032
KSM1-C                  
1 46906U 20081B   26204.31822870  .00009117  00000+0  33652-3 0  9990
2 46906  36.8934 195.7884 0002626 201.2749 158.7892 15.27266997314690
KSM1-D                  
1 46907U 20081C   26204.36876302  .00008047  00000+0  31682-3 0  9997
2 46907  36.8944 205.1969 0004264 212.7788 147.2696 15.25176139314626
KSM1-A                  
1 46912U 20081H   26204.34032125  .00008902  00000+0  33678-3 0  9995
2 46912  36.8938 198.3247 0004324 253.9843 106.0430 15.26457736314707
R2                      
1 46913U 20081J   26204.24378236  .00007765  00000+0  29903-3 0  9993
2 46913  36.8966 199.0894 0009218 232.2934 127.6979 15.25902537317492
KSM1-B                  
1 46914U 20081K   26204.37731838  .00008420  00000+0  33338-3 0  9995
2 46914  36.8998 205.8377 0006222 227.2913 132.7312 15.24961021317718
GONETS-M 20             
1 47227U 20091A   26204.87354090 -.00000065  00000+0 -54001-3 0  9999
2 47227  82.5037 279.6329 0022204 101.0535 259.3043 12.42894450255638
GONETS-M 21             
1 47228U 20091B   26204.84759439 -.00000065  00000+0 -54347-3 0  9996
2 47228  82.4961 278.3336 0016029 114.4145 245.8609 12.42887333255620
GONETS-M 22             
1 47229U 20091C   26204.82052394 -.00000159  00000+0 -12201-2 0  9997
2 47229  82.5019 279.2661 0023036  96.7219 263.6483 12.42893222255573
CUBEL                   
1 47448U 21006AM  26204.37764654  .00020309  00000+0  47355-3 0  9992
2 47448  97.2309 254.6404 0007300  58.8362 301.3601 15.42242731305335
ARKTIKA-M 1             
1 47719U 21016A   26198.89672402 -.00000295  00000+0  00000+0 0  9997
2 47719  63.2571  53.1467 7298516 270.0868  14.5016  2.00610215 39409
STARLINK-2342           
1 47883U 21021Z   26204.91668980  .00484314  11068-3  99533-3 0  9992
2 47883  53.1484 321.8614 0012673 328.1650  37.1395 15.98614242  5988
GRUS-1B                 
1 47934U 21022C   26204.82960850  .00002085  00000+0  17732-3 0  9993
2 47934  97.5345  86.8027 0014805 185.3239 174.7830 14.98802705291389
UNISAT-7                
1 47945U 21022P   26204.71920132  .00014175  00000+0  34109-3 0  9992
2 47945  97.3846 110.0414 0006850 312.3909  47.6757 15.41378605295489
GLOBAL-9                
1 47971U 21023G   26204.73053433  .00021479  00000+0  40883-3 0  9996
2 47971  44.9817  44.9230 0004615 220.9908 139.0637 15.47899313300609
AII-BRAVO               
1 48270U 21034C   26204.42342836  .00004112  00000+0  30403-3 0  9997
2 48270  97.5609 258.5090 0007105 134.0378 226.1434 15.03723036285060
TYVAK-182A              
1 48271U 21034D   26204.60026759  .00003455  00000+0  23832-3 0  9998
2 48271  97.5702 262.8882 0005678 190.4446 169.6664 15.06448662285313
CSS (TIANHE)            
1 48274U 21035A   26204.73936068  .00010440  00000+0  13794-3 0  9997
2 48274  41.4707 100.0404 0002755 309.6784  50.3810 15.58301417298871
TYVAK-0130              
1 48606U 21041BF  26204.41664168  .00005066  00000+0  19544-3 0  9994
2 48606  52.9934 217.7722 0008418 290.6049  69.4045 15.28012125285928
HAIYANG-2D              
1 48621U 21043A   26204.87367167  .00000033  00000+0  10366-3 0  9994
2 48621  65.9967 213.3627 0011602 264.7462  95.2282 13.83374583261620
2021-050D               
1 48843U 21050D   26204.85388609  .00004911  00000+0  20762-3 0  9990
2 48843  97.3325 280.0591 0007075 126.8856 233.3030 15.23660614284549
TYVAK-0173              
1 48892U 21059P   26204.18689117  .00001289  00000+0  16652-3 0  9995
2 48892  96.0066 271.5940 0007144 265.2158  94.8245 14.81988022273572
MANDRAKE 2 ABLE         
1 48907U 21059AE  26204.77315941  .00021108  00000+0  30052-3 0  9990
2 48907  97.7032  37.3872 0004481 198.4117 161.6975 15.56368423282815
MANDRAKE 2 BAKER        
1 48908U 21059AF  26204.78508140  .00027531  00000+0  32440-3 0  9996
2 48908  97.6995  40.5372 0003456 185.5851 174.5367 15.61354778283001
PACE-1                  
1 48909U 21059AG  26204.05332317  .00154457  00000+0  59518-3 0  9991
2 48909  97.6731  46.4314 0002938 154.3467 205.7950 15.86907404283475
YAM-3                   
1 48915U 21059AN  26204.82586943  .00011473  00000+0  21159-3 0  9999
2 48915  97.6998  34.1989 0004506 202.1122 157.9935 15.49297126282665
